ONEWEB-0707             
1 61612U 24188U   24362.58334491 -.00981716  00000+0 -85623+0 0  9999
2 61612  87.3167 144.6463 0005885  68.0365  88.6613 13.89094679 10922
ONEWEB-0708             
1 61613U 24188V   24362.58334491  .00000016  00000+0  00000+0 0  9999
2 61613  87.3082 144.6167 0004230  25.6794  39.0701 13.85106731 11140
